[{"OBJECT_NAME":"CZ-2D R/B","OBJECT_ID":"2005-024B","EPOCH":"2026-03-03T23:59:53.239200","MEAN_MOTION":15.59546967,"ECCENTRICITY":0.00067238,"INCLINATION":97.3594,"RA_OF_ASC_NODE":77.9392,"ARG_OF_PERICENTER":61.1543,"MEAN_ANOMALY":299.0388,"EPHEMERIS_TYPE":0,"CLASSIFICATION_TYPE":"U","NORAD_CAT_ID":28738,"ELEMENT_SET_NO":999,"REV_AT_EPOCH":13889,"BSTAR":0.00070719887,"MEAN_MOTION_DOT":0.0005639,"MEAN_MOTION_DDOT":0},{"OBJECT_NAME":"ALOS (DAICHI)","OBJECT_ID":"2006-002A","EPOCH":"2026-03-03T20:27:37.334880","MEAN_MOTION":14.69787621,"ECCENTRICITY":0.00011339,"INCLINATION":98.1208,"RA_OF_ASC_NODE":18.8377,"ARG_OF_PERICENTER":51.0197,"MEAN_ANOMALY":309.1109,"EPHEMERIS_TYPE":0,"CLASSIFICATION_TYPE":"U","NORAD_CAT_ID":28931,"ELEMENT_SET_NO":999,"REV_AT_EPOCH":7262,"BSTAR":0.00033384641,"MEAN_MOTION_DOT":1.943e-5,"MEAN_MOTION_DDOT":0},{"OBJECT_NAME":"H-2A R/B","OBJECT_ID":"2006-002B","EPOCH":"2026-03-03T09:44:51.284832","MEAN_MOTION":15.16255084,"ECCENTRICITY":0.00519152,"INCLINATION":98.2397,"RA_OF_ASC_NODE":208.891,"ARG_OF_PERICENTER":262.6569,"MEAN_ANOMALY":96.876,"EPHEMERIS_TYPE":0,"CLASSIFICATION_TYPE":"U","NORAD_CAT_ID":28932,"ELEMENT_SET_NO":999,"REV_AT_EPOCH":9348,"BSTAR":0.00059324383,"MEAN_MOTION_DOT":0.00011806,"MEAN_MOTION_DDOT":0},{"OBJECT_NAME":"RESURS-DK 1","OBJECT_ID":"2006-021A","EPOCH":"2026-03-03T21:57:22.602816","MEAN_MOTION":15.12697372,"ECCENTRICITY":0.0002432,"INCLINATION":69.9304,"RA_OF_ASC_NODE":251.9622,"ARG_OF_PERICENTER":165.6205,"MEAN_ANOMALY":194.5031,"EPHEMERIS_TYPE":0,"CLASSIFICATION_TYPE":"U","NORAD_CAT_ID":29228,"ELEMENT_SET_NO":999,"REV_AT_EPOCH":8665,"BSTAR":0.0002100572,"MEAN_MOTION_DOT":3.579e-5,"MEAN_MOTION_DDOT":0},{"OBJECT_NAME":"CZ-4B R/B","OBJECT_ID":"2006-046C","EPOCH":"2026-03-03T22:27:54.061632","MEAN_MOTION":15.16833499,"ECCENTRICITY":0.00317358,"INCLINATION":97.5603,"RA_OF_ASC_NODE":107.8601,"ARG_OF_PERICENTER":288.2223,"MEAN_ANOMALY":71.5557,"EPHEMERIS_TYPE":0,"CLASSIFICATION_TYPE":"U","NORAD_CAT_ID":29507,"ELEMENT_SET_NO":999,"REV_AT_EPOCH":5917,"BSTAR":0.00036843086,"MEAN_MOTION_DOT":7.27e-5,"MEAN_MOTION_DDOT":0},{"OBJECT_NAME":"CZ-2C R/B","OBJECT_ID":"2007-010B","EPOCH":"2026-03-03T19:23:37.673952","MEAN_MOTION":14.2024379,"ECCENTRICITY":0.00580528,"INCLINATION":98.3977,"RA_OF_ASC_NODE":176.3819,"ARG_OF_PERICENTER":312.0258,"MEAN_ANOMALY":47.5986,"EPHEMERIS_TYPE":0,"CLASSIFICATION_TYPE":"U","NORAD_CAT_ID":31114,"ELEMENT_SET_NO":999,"REV_AT_EPOCH":97888,"BSTAR":9.533443e-5,"MEAN_MOTION_DOT":1.66e-6,"MEAN_MOTION_DDOT":0},{"OBJECT_NAME":"COSMO-SKYMED 1","OBJECT_ID":"2007-023A","EPOCH":"2026-03-03T23:32:44.373696","MEAN_MOTION":14.96480826,"ECCENTRICITY":8.11e-5,"INCLINATION":97.8861,"RA_OF_ASC_NODE":253.968,"ARG_OF_PERICENTER":89.818,"MEAN_ANOMALY":270.3134,"EPHEMERIS_TYPE":0,"CLASSIFICATION_TYPE":"U","NORAD_CAT_ID":31598,"ELEMENT_SET_NO":999,"REV_AT_EPOCH":1405,"BSTAR":0.00041786342,"MEAN_MOTION_DOT":4.686e-5,"MEAN_MOTION_DDOT":0},{"OBJECT_NAME":"COSMOS 2428","OBJECT_ID":"2007-029A","EPOCH":"2026-03-03T19:12:27.707616","MEAN_MOTION":14.12944514,"ECCENTRICITY":0.00087905,"INCLINATION":70.9422,"RA_OF_ASC_NODE":215.7044,"ARG_OF_PERICENTER":283.2817,"MEAN_ANOMALY":76.7324,"EPHEMERIS_TYPE":0,"CLASSIFICATION_TYPE":"U","NORAD_CAT_ID":31792,"ELEMENT_SET_NO":999,"REV_AT_EPOCH":96326,"BSTAR":6.2226929e-5,"MEAN_MOTION_DOT":6.8e-7,"MEAN_MOTION_DDOT":0},{"OBJECT_NAME":"SL-16 R/B","OBJECT_ID":"2007-029B","EPOCH":"2026-03-03T18:36:26.192160","MEAN_MOTION":14.14833889,"ECCENTRICITY":0.00024267,"INCLINATION":70.9756,"RA_OF_ASC_NODE":184.816,"ARG_OF_PERICENTER":278.0929,"MEAN_ANOMALY":189.2811,"EPHEMERIS_TYPE":0,"CLASSIFICATION_TYPE":"U","NORAD_CAT_ID":31793,"ELEMENT_SET_NO":999,"REV_AT_EPOCH":96453,"BSTAR":-5.4637316e-5,"MEAN_MOTION_DOT":-1.53e-6,"MEAN_MOTION_DDOT":0},{"OBJECT_NAME":"KORONAS-FOTON","OBJECT_ID":"2009-003A","EPOCH":"2026-03-03T22:17:14.001792","MEAN_MOTION":15.43162786,"ECCENTRICITY":0.00108294,"INCLINATION":82.4281,"RA_OF_ASC_NODE":281.8683,"ARG_OF_PERICENTER":169.2075,"MEAN_ANOMALY":190.9407,"EPHEMERIS_TYPE":0,"CLASSIFICATION_TYPE":"U","NORAD_CAT_ID":33504,"ELEMENT_SET_NO":999,"REV_AT_EPOCH":94485,"BSTAR":0.00040539914,"MEAN_MOTION_DOT":0.00018048,"MEAN_MOTION_DDOT":0},{"OBJECT_NAME":"CZ-2C R/B","OBJECT_ID":"2011-030B","EPOCH":"2026-03-03T19:14:42.592704","MEAN_MOTION":14.81194075,"ECCENTRICITY":0.00529662,"INCLINATION":97.8533,"RA_OF_ASC_NODE":20.1831,"ARG_OF_PERICENTER":11.2331,"MEAN_ANOMALY":47.641,"EPHEMERIS_TYPE":0,"CLASSIFICATION_TYPE":"U","NORAD_CAT_ID":37731,"ELEMENT_SET_NO":999,"REV_AT_EPOCH":78922,"BSTAR":0.00031135661,"MEAN_MOTION_DOT":2.427e-5,"MEAN_MOTION_DDOT":0},{"OBJECT_NAME":"H-2A R/B","OBJECT_ID":"2012-025E","EPOCH":"2026-03-03T20:08:34.856448","MEAN_MOTION":14.95104186,"ECCENTRICITY":0.00438857,"INCLINATION":98.4716,"RA_OF_ASC_NODE":29.417,"ARG_OF_PERICENTER":333.6566,"MEAN_ANOMALY":26.2421,"EPHEMERIS_TYPE":0,"CLASSIFICATION_TYPE":"U","NORAD_CAT_ID":38341,"ELEMENT_SET_NO":999,"REV_AT_EPOCH":74734,"BSTAR":0.00050126201,"MEAN_MOTION_DOT":5.533e-5,"MEAN_MOTION_DDOT":0},{"OBJECT_NAME":"SHIJIAN-16 (SJ-16)","OBJECT_ID":"2013-057A","EPOCH":"2026-03-03T22:20:09.385152","MEAN_MOTION":14.92309579,"ECCENTRICITY":0.00156965,"INCLINATION":74.9731,"RA_OF_ASC_NODE":195.9885,"ARG_OF_PERICENTER":127.7669,"MEAN_ANOMALY":232.4944,"EPHEMERIS_TYPE":0,"CLASSIFICATION_TYPE":"U","NORAD_CAT_ID":39358,"ELEMENT_SET_NO":999,"REV_AT_EPOCH":67064,"BSTAR":0.00012275392,"MEAN_MOTION_DOT":1.228e-5,"MEAN_MOTION_DDOT":0},{"OBJECT_NAME":"SL-4 R/B","OBJECT_ID":"2014-021B","EPOCH":"2026-03-03T04:48:55.450656","MEAN_MOTION":15.38921077,"ECCENTRICITY":0.00980977,"INCLINATION":51.6082,"RA_OF_ASC_NODE":8.9286,"ARG_OF_PERICENTER":79.3446,"MEAN_ANOMALY":281.8567,"EPHEMERIS_TYPE":0,"CLASSIFICATION_TYPE":"U","NORAD_CAT_ID":39679,"ELEMENT_SET_NO":999,"REV_AT_EPOCH":65527,"BSTAR":0.00041513473,"MEAN_MOTION_DOT":0.00018805,"MEAN_MOTION_DDOT":0},{"OBJECT_NAME":"ALOS-2","OBJECT_ID":"2014-029A","EPOCH":"2026-03-03T21:39:33.402816","MEAN_MOTION":14.79474078,"ECCENTRICITY":0.00015132,"INCLINATION":97.9203,"RA_OF_ASC_NODE":161.5837,"ARG_OF_PERICENTER":99.798,"MEAN_ANOMALY":260.3402,"EPHEMERIS_TYPE":0,"CLASSIFICATION_TYPE":"U","NORAD_CAT_ID":39766,"ELEMENT_SET_NO":999,"REV_AT_EPOCH":63601,"BSTAR":0.00022945225,"MEAN_MOTION_DOT":1.663e-5,"MEAN_MOTION_DDOT":0},{"OBJECT_NAME":"YAOGAN-29","OBJECT_ID":"2015-069A","EPOCH":"2026-03-03T23:48:16.767072","MEAN_MOTION":14.82987923,"ECCENTRICITY":0.00022383,"INCLINATION":98.0149,"RA_OF_ASC_NODE":91.4057,"ARG_OF_PERICENTER":45.882,"MEAN_ANOMALY":314.2577,"EPHEMERIS_TYPE":0,"CLASSIFICATION_TYPE":"U","NORAD_CAT_ID":41038,"ELEMENT_SET_NO":999,"REV_AT_EPOCH":55503,"BSTAR":5.6022633e-5,"MEAN_MOTION_DOT":4.01e-6,"MEAN_MOTION_DDOT":0},{"OBJECT_NAME":"ASTRO-H (HITOMI)","OBJECT_ID":"2016-012A","EPOCH":"2026-03-03T22:46:48.740736","MEAN_MOTION":15.09956028,"ECCENTRICITY":0.00100214,"INCLINATION":31.0005,"RA_OF_ASC_NODE":33.5896,"ARG_OF_PERICENTER":274.071,"MEAN_ANOMALY":85.8782,"EPHEMERIS_TYPE":0,"CLASSIFICATION_TYPE":"U","NORAD_CAT_ID":41337,"ELEMENT_SET_NO":999,"REV_AT_EPOCH":55136,"BSTAR":0.00030032468,"MEAN_MOTION_DOT":5.095e-5,"MEAN_MOTION_DDOT":0}]
